{
  "type": "FeatureCollection",
  "features": [
    {
      "type": "Feature",
      "properties": {
        "norad_id": 66587,
        "name": "CZ-3B R/B",
        "group": "last-30-days",
        "lat": 51.05247775171016,
        "lon": -94.07190327189984,
        "alt_km": 17969.771336181828,
        "timestamp": "2025-12-15T14:57:56.620866+00:00",
        "meta_object_name": "CZ-3B R/B",
        "meta_object_id": "2025-269B",
        "meta_epoch": "2025-12-12T18:47:24.789120",
        "meta_mean_motion": 2.03336189,
        "meta_eccentricity": 0.7518951,
        "meta_inclination": 51.347,
        "meta_ra_of_asc_node": 169.6347,
        "meta_arg_of_pericenter": 228.7177,
        "meta_mean_anomaly": 37.1847,
        "meta_ephemeris_type": 0,
        "meta_classification_type": "U",
        "meta_norad_cat_id": 66587,
        "meta_element_set_no": 999,
        "meta_rev_at_epoch": 45,
        "meta_bstar": 0.00096662605,
        "meta_mean_motion_dot": 0.00067576,
        "meta_mean_motion_ddot": 1.09445e-06,
        "tle_line1": "1 66587U 25269B   25346.78292580  .00067576  10944-5  96663-3 0  9994",
        "tle_line2": "2 66587  51.3470 169.6347 7518951 228.7177  37.1847  2.03336189   454"
      },
      "geometry": {
        "type": "Point",
        "coordinates": [
          -94.07190327189984,
          51.05247775171016
        ]
      }
    },
    {
      "type": "Feature",
      "properties": {
        "norad_id": 66588,
        "name": "STARLINK-36076",
        "group": "last-30-days",
        "lat": -4.392625275158057,
        "lon": 0.8887468831884248,
        "alt_km": 443.78570336897974,
        "timestamp": "2025-12-15T14:57:56.620877+00:00",
        "meta_object_name": "STARLINK-36076",
        "meta_object_id": "2025-270A",
        "meta_epoch": "2025-12-14T20:00:06.000192",
        "meta_mean_motion": 15.40692986,
        "meta_eccentricity": 0.00016308,
        "meta_inclination": 42.9994,
        "meta_ra_of_asc_node": 180.7148,
        "meta_arg_of_pericenter": 244.453,
        "meta_mean_anomaly": 233.9982,
        "meta_ephemeris_type": 0,
        "meta_classification_type": "U",
        "meta_norad_cat_id": 66588,
        "meta_element_set_no": 999,
        "meta_rev_at_epoch": 473,
        "meta_bstar": 0.00055832362,
        "meta_mean_motion_dot": 0.00023084,
        "meta_mean_motion_ddot": 0,
        "tle_line1": "1 66588U 25270A   25348.83340278  .00023084  00000+0  55832-3 0  9998",
        "tle_line2": "2 66588  42.9994 180.7148 0001630 244.4530 233.9982 15.40692986  4733"
      },
      "geometry": {
        "type": "Point",
        "coordinates": [
          0.8887468831884248,
          -4.392625275158057
        ]
      }
    },
    {
      "type": "Feature",
      "properties": {
        "norad_id": 66589,
        "name": "STARLINK-35447",
        "group": "last-30-days",
        "lat": -33.58809184480882,
        "lon": 130.41229577706312,
        "alt_km": 418.62940998904196,
        "timestamp": "2025-12-15T14:57:56.620887+00:00",
        "meta_object_name": "STARLINK-35447",
        "meta_object_id": "2025-270B",
        "meta_epoch": "2025-12-14T00:32:26.215296",
        "meta_mean_motion": 15.50334967,
        "meta_eccentricity": 0.00011654,
        "meta_inclination": 42.9995,
        "meta_ra_of_asc_node": 185.2277,
        "meta_arg_of_pericenter": 309.7204,
        "meta_mean_anomaly": 50.3553,
        "meta_ephemeris_type": 0,
        "meta_classification_type": "U",
        "meta_norad_cat_id": 66589,
        "meta_element_set_no": 999,
        "meta_rev_at_epoch": 465,
        "meta_bstar": -0.0013753722,
        "meta_mean_motion_dot": -0.00079519,
        "meta_mean_motion_ddot": 0,
        "tle_line1": "1 66589U 25270B   25348.02252564 -.00079519  00000+0 -13754-2 0  9992",
        "tle_line2": "2 66589  42.9995 185.2277 0001165 309.7204  50.3553 15.50334967  4653"
      },
      "geometry": {
        "type": "Point",
        "coordinates": [
          130.41229577706312,
          -33.58809184480882
        ]
      }
    },
    {
      "type": "Feature",
      "properties": {
        "norad_id": 66590,
        "name": "STARLINK-35429",
        "group": "last-30-days",
        "lat": -33.32635110967704,
        "lon": 130.98419456819627,
        "alt_km": 416.54559901353423,
        "timestamp": "2025-12-15T14:57:56.620913+00:00",
        "meta_object_name": "STARLINK-35429",
        "meta_object_id": "2025-270C",
        "meta_epoch": "2025-12-14T22:11:28.797504",
        "meta_mean_motion": 15.5059637,
        "meta_eccentricity": 0.00020258,
        "meta_inclination": 42.999,
        "meta_ra_of_asc_node": 179.9558,
        "meta_arg_of_pericenter": 273.3775,
        "meta_mean_anomaly": 86.6853,
        "meta_ephemeris_type": 0,
        "meta_classification_type": "U",
        "meta_norad_cat_id": 66590,
        "meta_element_set_no": 999,
        "meta_rev_at_epoch": 479,
        "meta_bstar": 0.00056337215,
        "meta_mean_motion_dot": 0.00032869,
        "meta_mean_motion_ddot": 0,
        "tle_line1": "1 66590U 25270C   25348.92463886  .00032869  00000+0  56337-3 0  9994",
        "tle_line2": "2 66590  42.9990 179.9558 0002025 273.3775  86.6853 15.50596370  4795"
      },
      "geometry": {
        "type": "Point",
        "coordinates": [
          130.98419456819627,
          -33.32635110967704
        ]
      }
    },
    {
      "type": "Feature",
      "properties": {
        "norad_id": 66591,
        "name": "STARLINK-36058",
        "group": "last-30-days",
        "lat": -31.36444126022261,
        "lon": 135.000021146528,
        "alt_km": 416.2348119195385,
        "timestamp": "2025-12-15T14:57:56.620924+00:00",
        "meta_object_name": "STARLINK-36058",
        "meta_object_id": "2025-270D",
        "meta_epoch": "2025-12-14T22:10:26.020128",
        "meta_mean_motion": 15.50610977,
        "meta_eccentricity": 0.00032622,
        "meta_inclination": 42.9989,
        "meta_ra_of_asc_node": 179.9492,
        "meta_arg_of_pericenter": 267.1967,
        "meta_mean_anomaly": 92.852,
        "meta_ephemeris_type": 0,
        "meta_classification_type": "U",
        "meta_norad_cat_id": 66591,
        "meta_element_set_no": 999,
        "meta_rev_at_epoch": 468,
        "meta_bstar": -0.0010283609,
        "meta_mean_motion_dot": -0.0006029,
        "meta_mean_motion_ddot": 0,
        "tle_line1": "1 66591U 25270D   25348.92391227 -.00060290  00000+0 -10284-2 0  9995",
        "tle_line2": "2 66591  42.9989 179.9492 0003262 267.1967  92.8520 15.50610977  4687"
      },
      "geometry": {
        "type": "Point",
        "coordinates": [
          135.000021146528,
          -31.36444126022261
        ]
      }
    },
    {
      "type": "Feature",
      "properties": {
        "norad_id": 66592,
        "name": "STARLINK-36066",
        "group": "last-30-days",
        "lat": -34.531667193448435,
        "lon": 43.6354791048065,
        "alt_km": 446.09666173334426,
        "timestamp": "2025-12-15T14:57:56.620934+00:00",
        "meta_object_name": "STARLINK-36066",
        "meta_object_id": "2025-270E",
        "meta_epoch": "2025-12-14T20:00:06.000192",
        "meta_mean_motion": 15.40664891,
        "meta_eccentricity": 0.0001511,
        "meta_inclination": 42.9996,
        "meta_ra_of_asc_node": 180.5925,
        "meta_arg_of_pericenter": 263.233,
        "meta_mean_anomaly": 265.1031,
        "meta_ephemeris_type": 0,
        "meta_classification_type": "U",
        "meta_norad_cat_id": 66592,
        "meta_element_set_no": 999,
        "meta_rev_at_epoch": 463,
        "meta_bstar": 0.00083036589,
        "meta_mean_motion_dot": 0.00034499,
        "meta_mean_motion_ddot": 0,
        "tle_line1": "1 66592U 25270E   25348.83340278  .00034499  00000+0  83037-3 0  9993",
        "tle_line2": "2 66592  42.9996 180.5925 0001511 263.2330 265.1031 15.40664891  4631"
      },
      "geometry": {
        "type": "Point",
        "coordinates": [
          43.6354791048065,
          -34.531667193448435
        ]
      }
    },
    {
      "type": "Feature",
      "properties": {
        "norad_id": 66593,
        "name": "STARLINK-36031",
        "group": "last-30-days",
        "lat": -30.135646781667273,
        "lon": 137.31539837073967,
        "alt_km": 418.0019052434491,
        "timestamp": "2025-12-15T14:57:56.620943+00:00",
        "meta_object_name": "STARLINK-36031",
        "meta_object_id": "2025-270F",
        "meta_epoch": "2025-12-14T22:09:34.286400",
        "meta_mean_motion": 15.50283449,
        "meta_eccentricity": 0.00018317,
        "meta_inclination": 42.9991,
        "meta_ra_of_asc_node": 179.9445,
        "meta_arg_of_pericenter": 300.2852,
        "meta_mean_anomaly": 59.7827,
        "meta_ephemeris_type": 0,
        "meta_classification_type": "U",
        "meta_norad_cat_id": 66593,
        "meta_element_set_no": 999,
        "meta_rev_at_epoch": 468,
        "meta_bstar": -0.0027150939,
        "meta_mean_motion_dot": -0.00154884,
        "meta_mean_motion_ddot": 0,
        "tle_line1": "1 66593U 25270F   25348.92331350 -.00154884  00000+0 -27151-2 0  9992",
        "tle_line2": "2 66593  42.9991 179.9445 0001831 300.2852  59.7827 15.50283449  4684"
      },
      "geometry": {
        "type": "Point",
        "coordinates": [
          137.31539837073967,
          -30.135646781667273
        ]
      }
    }
  ]
}